NORAD_CAT_ID,OBJECT_NAME,OBJECT_TYPE,EPOCH,MEAN_MOTION,ECCENTRICITY,INCLINATION,RA_OF_ASC_NODE,ARG_OF_PERICENTER,MEAN_ANOMALY,BSTAR,MEAN_MOTION_DOT,MEAN_MOTION_DDOT,TLE_LINE0,TLE_LINE1,TLE_LINE2,SEMIMAJOR_AXIS,PERIOD,APOGEE,PERIGEE,DECAYED
53435.0,STARLINK-4542,PAYLOAD,2023-03-26 19:37:56,15.08837782,0.0001033,53.2145,267.1641,139.9848,220.1221,0.00078114,0.00012165,0.0,0 STARLINK-4542,1 53435U 22097AZ  23085.81801156  .00012165  00000-0  78114-3 0  9997,2 53435  53.2145 267.1641 0001033 139.9848 220.1221 15.08837782 35432,6917.887,95.438,540.467,539.038,0.0
53435.0,STARLINK-4542,PAYLOAD,2023-03-27 11:31:47,15.08873729,0.0001091,53.2142,264.1897,128.5768,231.5322,0.00144,0.00022725,0.0,0 STARLINK-4542,1 53435U 22097AZ  23086.48040795  .00022725  00000-0  14400-2 0  9995,2 53435  53.2142 264.1897 0001091 128.5768 231.5322 15.08873729 35998,6917.777,95.435,540.397,538.888,0.0
53435.0,STARLINK-4542,PAYLOAD,2023-03-27 19:28:42,15.08886866,0.0001094,53.2149,262.7029,120.3875,239.7225,0.0017208,0.0002724,0.0,0 STARLINK-4542,1 53435U 22097AZ  23086.81160022  .00027240  00000-0  17208-2 0  9994,2 53435  53.2149 262.7029 0001094 120.3875 239.7225 15.08886866 35581,6917.737,95.435,540.359,538.845,0.0
53435.0,STARLINK-4542,PAYLOAD,2023-03-28 05:01:01,15.08856341,0.0001509,53.2148,260.9184,94.59,265.5264,0.00050211,7.716e-05,0.0,0 STARLINK-4542,1 53435U 22097AZ  23087.20904141  .00007716  00000-0  50211-3 0  9994,2 53435  53.2148 260.9184 0001509  94.5900 265.5264 15.08856341 35646,6917.83,95.437,540.739,538.652,0.0
53435.0,STARLINK-4542,PAYLOAD,2023-03-28 17:44:06,15.08854522,0.0001556,53.2147,258.5403,89.3543,270.7628,0.0012342,0.00019417,0.0,0 STARLINK-4542,1 53435U 22097AZ  23087.73895866  .00019417  00000-0  12342-2 0  9998,2 53435  53.2147 258.5403 0001556  89.3543 270.7628 15.08854522 36180,6917.836,95.437,540.777,538.625,0.0
53435.0,STARLINK-4542,PAYLOAD,2023-03-29 04:51:48,15.0884048,0.0001158,53.2147,256.4594,79.9778,280.1345,0.00047221,7.235e-05,0.0,0 STARLINK-4542,1 53435U 22097AZ  23088.20264287  .00007235  00000-0  47221-3 0  9998,2 53435  53.2147 256.4594 0001158  79.9778 280.1345 15.08840480 35796,6917.879,95.438,540.545,538.943,0.0
53435.0,STARLINK-4542,PAYLOAD,2023-03-29 11:13:20,15.08847122,0.0001191,53.2148,255.2697,75.9958,284.1166,0.00083177,0.00012977,0.0,0 STARLINK-4542,1 53435U 22097AZ  23088.46760319  .00012977  00000-0  83177-3 0  9992,2 53435  53.2148 255.2697 0001191  75.9958 284.1166 15.08847122 36292,6917.859,95.437,540.548,538.9,0.0
53435.0,STARLINK-4542,PAYLOAD,2023-03-29 17:34:53,15.08847928,0.0001098,53.2151,254.0805,72.6631,287.4481,0.0016477,0.00026038,0.0,0 STARLINK-4542,1 53435U 22097AZ  23088.73256290  .00026038  00000-0  16477-2 0  9991,2 53435  53.2151 254.0805 0001098  72.6631 287.4481 15.08847928 36337,6917.856,95.437,540.481,538.962,0.0
53435.0,STARLINK-4542,PAYLOAD,2023-03-29 22:21:02,15.08859094,0.000113,53.2148,253.188,70.1562,289.9552,0.0017757,0.000281,0.0,0 STARLINK-4542,1 53435U 22097AZ  23088.93128067  .00028100  00000-0  17757-2 0  9997,2 53435  53.2148 253.1880 0001130  70.1562 289.9552 15.08859094 35904,6917.822,95.436,540.469,538.905,0.0
53435.0,STARLINK-4542,PAYLOAD,2023-03-30 15:50:17,15.08870392,0.0001312,53.2147,249.9181,47.8723,312.2381,0.0023296,0.00037014,0.0,0 STARLINK-4542,1 53435U 22097AZ  23089.65991922  .00037014  00000-0  23296-2 0  9994,2 53435  53.2147 249.9181 0001312  47.8723 312.2381 15.08870392 36019,6917.787,95.436,540.56,538.745,0.0
53435.0,STARLINK-4542,PAYLOAD,2023-03-31 02:57:57,15.08851565,0.0001077,53.2146,247.8362,191.1701,168.9268,-0.0015169,-0.00024355,0.0,0 STARLINK-4542,1 53435U 22097AZ  23090.12358641 -.00024355  00000-0 -15169-2 0  9999,2 53435  53.2146 247.8362 0001077 191.1701 168.9268 15.08851565 36081,6917.845,95.437,540.455,538.965,0.0
53435.0,STARLINK-4542,PAYLOAD,2023-03-31 20:27:12,15.08869583,0.0001124,53.2144,244.5631,80.2797,279.8322,0.0023861,0.00037922,0.0,0 STARLINK-4542,1 53435U 22097AZ  23090.85223223  .00037922  00000-0  23861-2 0  9996,2 53435  53.2144 244.5631 0001124  80.2797 279.8322 15.08869583 36192,6917.79,95.436,540.433,538.877,0.0
53435.0,STARLINK-4542,PAYLOAD,2023-04-01 02:48:46,15.08829518,0.0002835,53.2146,243.3738,94.768,265.3636,0.00043766,6.682e-05,0.0,0 STARLINK-4542,1 53435U 22097AZ  23091.11720206  .00006682  00000-0  43766-3 0  9995,2 53435  53.2146 243.3738 0002835  94.7680 265.3636 15.08829518 36237,6917.912,95.438,541.739,537.816,0.0
53435.0,STARLINK-4542,PAYLOAD,2023-04-01 10:45:41,15.08826006,0.0001424,53.217,241.8887,110.8296,249.2849,0.00026289,3.897e-05,0.0,0 STARLINK-4542,1 53435U 22097AZ  23091.44840112  .00003897  00000-0  26289-3 0  9996,2 53435  53.2170 241.8887 0001424 110.8296 249.2849 15.08826006 36740,6917.923,95.438,540.773,538.803,0.0
53435.0,STARLINK-4542,PAYLOAD,2023-04-01 17:07:14,15.08834968,0.0001329,53.2164,240.6994,109.6996,250.414,0.00051876,7.977e-05,0.0,0 STARLINK-4542,1 53435U 22097AZ  23091.71336322  .00007977  00000-0  51876-3 0  9992,2 53435  53.2164 240.6994 0001329 109.6996 250.4140 15.08834968 36784,6917.896,95.438,540.68,538.841,0.0
53435.0,STARLINK-4542,PAYLOAD,2023-04-02 13:47:15,15.08855599,0.0001195,53.2161,236.8334,106.075,254.0374,0.0010805,0.00016957,0.0,0 STARLINK-4542,1 53435U 22097AZ  23092.57448374  .00016957  00000-0  10805-2 0  9992,2 53435  53.2161 236.8334 0001195 106.0750 254.0374 15.08855599 36913,6917.833,95.437,540.524,538.871,0.0
53435.0,STARLINK-4542,PAYLOAD,2023-04-02 15:22:38,15.08859922,0.0001223,53.2156,236.5361,105.6751,254.4376,0.0011628,0.00018276,0.0,0 STARLINK-4542,1 53435U 22097AZ  23092.64072257  .00018276  00000-0  11628-2 0  9993,2 53435  53.2156 236.5361 0001223 105.6751 254.4376 15.08859922 36462,6917.819,95.436,540.531,538.838,0.0
53435.0,STARLINK-4542,PAYLOAD,2023-04-02 18:33:24,15.08870571,0.0001258,53.2158,235.9419,103.0867,257.0266,0.0014483,0.00022856,0.0,0 STARLINK-4542,1 53435U 22097AZ  23092.77319939  .00022856  00000-0  14483-2 0  9999,2 53435  53.2158 235.9419 0001258 103.0867 257.0266 15.08870571 36942,6917.787,95.436,540.522,538.782,0.0
53435.0,STARLINK-4542,PAYLOAD,2023-04-03 02:30:20,15.08857037,0.0001294,53.2152,234.454,67.8971,292.2158,0.00061964,9.592e-05,0.0,0 STARLINK-4542,1 53435U 22097AZ  23093.10439996  .00009592  00000-0  61964-3 0  9992,2 53435  53.2152 234.4540 0001294  67.8971 292.2158 15.08857037 36536,6917.828,95.436,540.588,538.798,0.0
53435.0,STARLINK-4542,PAYLOAD,2023-04-03 08:51:53,15.08855381,0.0003327,53.2155,233.2653,75.6597,284.4765,0.00097956,0.00015343,0.0,0 STARLINK-4542,1 53435U 22097AZ  23093.36936640  .00015343  00000-0  97956-3 0  9999,2 53435  53.2155 233.2653 0003327  75.6597 284.4765 15.08855381 37034,6917.833,95.437,542.0,537.397,0.0
53435.0,STARLINK-4542,PAYLOAD,2023-04-04 02:21:07,15.0884513,0.0001275,53.2156,229.9935,70.3185,289.7944,0.0009514,0.00014888,0.0,0 STARLINK-4542,1 53435U 22097AZ  23094.09800662  .00014888  00000-0  95140-3 0  9990,2 53435  53.2156 229.9935 0001275  70.3185 289.7944 15.08845130 36683,6917.865,95.437,540.612,538.848,0.0
53435.0,STARLINK-4542,PAYLOAD,2023-04-04 08:42:40,15.0884783,0.0001675,53.2162,228.8042,70.6887,289.4286,0.0011245,0.00017658,0.0,0 STARLINK-4542,1 53435U 22097AZ  23094.36296890  .00017658  00000-0  11245-2 0  9993,2 53435  53.2162 228.8042 0001675  70.6887 289.4286 15.08847830 37184,6917.856,95.437,540.88,538.563,0.0
53435.0,STARLINK-4542,PAYLOAD,2023-04-04 21:25:45,15.08860277,0.0001493,53.2123,226.4223,76.0932,284.0226,0.00092244,0.00014431,0.0,0 STARLINK-4542,1 53435U 22097AZ  23094.89288278  .00014431  00000-0  92244-3 0  9997,2 53435  53.2123 226.4223 0001493  76.0932 284.0226 15.08860277 36808,6917.818,95.436,540.716,538.651,0.0
53435.0,STARLINK-4542,PAYLOAD,2023-04-05 13:19:36,15.0883341,0.000139,53.2115,223.4499,67.8005,292.3135,0.00024818,3.663e-05,0.0,0 STARLINK-4542,1 53435U 22097AZ  23095.55528873  .00003663  00000-0  24818-3 0  9996,2 53435  53.2115 223.4499 0001390  67.8005 292.3135 15.08833410 37368,6917.901,95.438,540.727,538.804,0.0
53435.0,STARLINK-4542,PAYLOAD,2023-04-05 14:55:00,15.08834224,0.0001353,53.212,223.1533,57.549,302.5633,0.00036421,5.512e-05,0.0,0 STARLINK-4542,1 53435U 22097AZ  23095.62152938  .00005512  00000-0  36421-3 0  9997,2 53435  53.2120 223.1533 0001353  57.5490 302.5633 15.08834224 36914,6917.898,95.438,540.699,538.827,0.0
53435.0,STARLINK-4542,PAYLOAD,2023-04-06 11:35:01,15.08843809,0.0001384,53.215,219.2872,88.1559,271.9592,0.00056287,8.682e-05,0.0,0 STARLINK-4542,1 53435U 22097AZ  23096.48265177  .00008682  00000-0  56287-3 0  9995,2 53435  53.2150 219.2872 0001384  88.1559 271.9592 15.08843809 37507,6917.869,95.437,540.691,538.776,0.0
53435.0,STARLINK-4542,PAYLOAD,2023-04-07 06:39:38,15.08848443,0.000133,53.2151,215.7197,80.8301,279.2842,0.00040193,6.116e-05,0.0,0 STARLINK-4542,1 53435U 22097AZ  23097.27752983  .00006116  00000-0  40193-3 0  9998,2 53435  53.2151 215.7197 0001330  80.8301 279.2842 15.08848443 37164,6917.855,95.437,540.64,538.8,0.0
53435.0,STARLINK-4542,PAYLOAD,2023-04-07 11:25:48,15.08845291,0.0001164,53.215,214.8262,92.9073,267.2052,0.000254,3.757e-05,0.0,0 STARLINK-4542,1 53435U 22097AZ  23097.47625003  .00003757  00000-0  25400-3 0  9994,2 53435  53.2150 214.8262 0001164  92.9073 267.2052 15.08845291 37653,6917.864,95.437,540.534,538.924,0.0
53435.0,STARLINK-4542,PAYLOAD,2023-04-08 00:08:52,15.08837581,6.77e-05,53.2149,212.4479,122.0637,238.0421,-1.312e-05,-4.96e-06,0.0,0 STARLINK-4542,1 53435U 22097AZ  23098.00616879 -.00000496  00000-0 -13120-4 0  9991,2 53435  53.2149 212.4479 0000677 122.0637 238.0421 15.08837581 37271,6917.888,95.438,540.221,539.284,0.0
53435.0,STARLINK-4542,PAYLOAD,2023-04-08 12:51:58,15.08838973,0.0001036,53.215,210.0693,97.1714,262.9396,4.25e-05,3.89e-06,0.0,0 STARLINK-4542,1 53435U 22097AZ  23098.53609123  .00000389  00000-0  42500-4 0  9996,2 53435  53.2150 210.0693 0001036  97.1714 262.9396 15.08838973 37816,6917.884,95.438,540.465,539.032,0.0
